[{"OBJECT_NAME":"STARLINK-32798","OBJECT_ID":"2025-034A","EPOCH":"2026-03-09T20:24:32.546016","MEAN_MOTION":15.30200436,"ECCENTRICITY":8.224e-5,"INCLINATION":53.1575,"RA_OF_ASC_NODE":270.007,"ARG_OF_PERICENTER":70.6061,"MEAN_ANOMALY":289.5028,"EPHEMERIS_TYPE":0,"CLASSIFICATION_TYPE":"U","NORAD_CAT_ID":63029,"ELEMENT_SET_NO":999,"REV_AT_EPOCH":5893,"BSTAR":0.0010128444,"MEAN_MOTION_DOT":0.00029759,"MEAN_MOTION_DDOT":0},{"OBJECT_NAME":"CZ-4C R\/B","OBJECT_ID":"2024-089B","EPOCH":"2026-03-09T16:45:24.409152","MEAN_MOTION":15.30115456,"ECCENTRICITY":0.00763424,"INCLINATION":97.7122,"RA_OF_ASC_NODE":107.3872,"ARG_OF_PERICENTER":235.0262,"MEAN_ANOMALY":124.3793,"EPHEMERIS_TYPE":0,"CLASSIFICATION_TYPE":"U","NORAD_CAT_ID":59729,"ELEMENT_SET_NO":999,"REV_AT_EPOCH":10143,"BSTAR":0.00030010198,"MEAN_MOTION_DOT":9.476e-5,"MEAN_MOTION_DDOT":0}]
